[{"OBJECT_NAME":"STARLINK-5548","OBJECT_ID":"2023-058T","EPOCH":"2026-03-09T21:34:59.195136","MEAN_MOTION":15.0565475,"ECCENTRICITY":0.00016208,"INCLINATION":97.6035,"RA_OF_ASC_NODE":71.5075,"ARG_OF_PERICENTER":88.5983,"MEAN_ANOMALY":271.5429,"EPHEMERIS_TYPE":0,"CLASSIFICATION_TYPE":"U","NORAD_CAT_ID":56334,"ELEMENT_SET_NO":999,"REV_AT_EPOCH":15823,"BSTAR":0.00042818172,"MEAN_MOTION_DOT":6.124e-5,"MEAN_MOTION_DDOT":0},{"OBJECT_NAME":"COSMOS 2251 DEB","OBJECT_ID":"1993-036ACA","EPOCH":"2026-03-09T23:22:42.926880","MEAN_MOTION":15.11397769,"ECCENTRICITY":0.00294457,"INCLINATION":73.9915,"RA_OF_ASC_NODE":264.707,"ARG_OF_PERICENTER":17.2418,"MEAN_ANOMALY":133.9216,"EPHEMERIS_TYPE":0,"CLASSIFICATION_TYPE":"U","NORAD_CAT_ID":34856,"ELEMENT_SET_NO":999,"REV_AT_EPOCH":90427,"BSTAR":0.0017835642,"MEAN_MOTION_DOT":0.00030525,"MEAN_MOTION_DDOT":0}]
